NORAD_CAT_ID,OBJECT_NAME,OBJECT_TYPE,EPOCH,MEAN_MOTION,ECCENTRICITY,INCLINATION,RA_OF_ASC_NODE,ARG_OF_PERICENTER,MEAN_ANOMALY,BSTAR,MEAN_MOTION_DOT,MEAN_MOTION_DDOT,TLE_LINE0,TLE_LINE1,TLE_LINE2,SEMIMAJOR_AXIS,PERIOD,APOGEE,PERIGEE,DECAYED
55927.0,STARLINK-5919,PAYLOAD,2023-11-10 07:51:49,14.9833596,0.0002657,69.9985,288.4203,270.7371,89.3484,7.6394e-05,8.19e-06,0.0,0 STARLINK-5919,1 55927U 23037P   23314.32766074  .00000819  00000-0  76394-4 0  9992,2 55927  69.9985 288.4203 0002657 270.7371  89.3484 14.98335960 36115,6950.174,96.107,573.886,570.193,0.0
55927.0,STARLINK-5919,PAYLOAD,2023-11-10 15:52:30,14.98331862,0.0002626,70.0,287.5774,280.7245,79.3618,-1.8189e-05,-3.1e-06,0.0,0 STARLINK-5919,1 55927U 23037P   23314.66146472 -.00000310  00000-0 -18189-4 0  9999,2 55927  70.0000 287.5774 0002626 280.7245  79.3618 14.98331862 36504,6950.187,96.107,573.877,570.227,0.0
55927.0,STARLINK-5919,PAYLOAD,2023-11-11 07:53:50,14.98336653,0.0002772,69.9984,285.8935,271.7625,88.3216,-0.00013201,-1.668e-05,0.0,0 STARLINK-5919,1 55927U 23037P   23315.32906057 -.00001668  00000-0 -13201-3 0  9992,2 55927  69.9984 285.8935 0002772 271.7625  88.3216 14.98336653 36266,6950.172,96.107,573.964,570.111,0.0
55927.0,STARLINK-5919,PAYLOAD,2023-11-11 15:54:31,14.98333388,0.0002655,69.9989,285.0522,266.5985,93.4871,-3.0695e-05,-4.59e-06,0.0,0 STARLINK-5919,1 55927U 23037P   23315.66285904 -.00000459  00000-0 -30695-4 0  9994,2 55927  69.9989 285.0522 0002655 266.5985  93.4871 14.98333388 36655,6950.182,96.107,573.893,570.202,0.0
55927.0,STARLINK-5919,PAYLOAD,2023-11-11 22:19:03,14.98329701,0.0002888,69.9984,284.3788,272.1208,87.962,6.0572e-05,6.3e-06,0.0,0 STARLINK-5919,1 55927U 23037P   23315.92989734  .00000630  00000-0  60572-4 0  9991,2 55927  69.9984 284.3788 0002888 272.1208  87.9620 14.98329701 36356,6950.194,96.107,574.066,570.052,0.0
55927.0,STARLINK-5919,PAYLOAD,2023-11-12 07:55:51,14.98334146,0.0002829,69.9985,283.369,270.8924,89.1911,7.3131e-05,7.8e-06,0.0,0 STARLINK-5919,1 55927U 23037P   23316.33045446  .00000780  00000-0  73131-4 0  9991,2 55927  69.9985 283.3690 0002829 270.8924  89.1911 14.98334146 36416,6950.18,96.107,574.011,570.079,0.0
55927.0,STARLINK-5919,PAYLOAD,2023-11-12 22:21:03,14.98329756,0.0002873,69.9985,281.854,271.311,88.772,0.00011443,1.273e-05,0.0,0 STARLINK-5919,1 55927U 23037P   23316.93129552  .00001273  00000-0  11443-3 0  9993,2 55927  69.9985 281.8540 0002873 271.3110  88.7720 14.98329756 36509,6950.194,96.107,574.055,570.062,0.0
55927.0,STARLINK-5919,PAYLOAD,2023-11-13 04:45:35,14.98334654,0.000289,69.9985,281.1807,271.1914,88.8914,0.00014004,1.578e-05,0.0,0 STARLINK-5919,1 55927U 23037P   23317.19833174  .00001578  00000-0  14004-3 0  9998,2 55927  69.9985 281.1807 0002890 271.1914  88.8914 14.98334654 36887,6950.178,96.107,574.052,570.035,0.0
55927.0,STARLINK-5919,PAYLOAD,2023-11-13 07:57:51,14.98337216,0.0002846,69.9987,280.8439,271.2988,88.7845,0.00016954,1.931e-05,0.0,0 STARLINK-5919,1 55927U 23037P   23317.33184943  .00001931  00000-0  16954-3 0  9996,2 55927  69.9987 280.8439 0002846 271.2988  88.7845 14.98337216 36563,6950.171,96.107,574.014,570.058,0.0
55927.0,STARLINK-5919,PAYLOAD,2023-11-13 20:46:58,14.98242567,0.0002913,69.9993,279.4986,260.5288,99.5542,0.0016027,0.00019039,0.0,0 STARLINK-5919,1 55927U 23037P   23317.86595250  .00019039  00000-0  16027-2 0  9999,2 55927  69.9993 279.4986 0002913 260.5288  99.5542 14.98242567 36647,6950.463,96.113,574.353,570.304,0.0
55927.0,STARLINK-5919,PAYLOAD,2023-11-14 01:35:21,14.98330304,0.0002539,69.9993,278.9934,271.879,88.2078,-5.1359e-05,-7.06e-06,0.0,0 STARLINK-5919,1 55927U 23037P   23318.06621841 -.00000706  00000-0 -51359-4 0  9990,2 55927  69.9993 278.9934 0002539 271.8790  88.2078 14.98330304 37019,6950.192,96.107,573.822,570.292,0.0
55927.0,STARLINK-5919,PAYLOAD,2023-11-14 07:59:53,14.9832714,0.0002626,69.9993,278.3199,268.8779,91.208,-3.1599e-05,-4.7e-06,0.0,0 STARLINK-5919,1 55927U 23037P   23318.33325981 -.00000470  00000-0 -31599-4 0  9998,2 55927  69.9993 278.3199 0002626 268.8779  91.2080 14.98327140 36713,6950.202,96.107,573.892,570.242,0.0
55927.0,STARLINK-5919,PAYLOAD,2023-11-15 03:13:30,14.98329022,0.0002405,69.9997,276.3007,280.5885,79.5004,-4.4476e-05,-6.24e-06,0.0,0 STARLINK-5919,1 55927U 23037P   23319.13437947 -.00000624  00000-0 -44476-4 0  9992,2 55927  69.9997 276.3007 0002405 280.5885  79.5004 14.98329022 37174,6950.196,96.107,573.732,570.389,0.0
55927.0,STARLINK-5919,PAYLOAD,2023-11-15 14:26:26,14.98329568,0.0002199,70.0004,275.1225,270.8785,89.2122,1.6803e-05,1.08e-06,0.0,0 STARLINK-5919,1 55927U 23037P   23319.60169844  .00000108  00000-0  16803-4 0  9990,2 55927  70.0004 275.1225 0002199 270.8785  89.2122 14.98329568 36900,6950.194,96.107,573.588,570.531,0.0
55927.0,STARLINK-5919,PAYLOAD,2023-11-16 06:27:47,14.98324307,0.0002443,69.9997,273.438,265.1534,94.9346,9.8324e-05,1.08e-05,0.0,0 STARLINK-5919,1 55927U 23037P   23320.26929722  .00001080  00000-0  98324-4 0  9991,2 55927  69.9997 273.4380 0002443 265.1534  94.9346 14.98324307 37348,6950.21,96.107,573.773,570.378,0.0
55927.0,STARLINK-5919,PAYLOAD,2023-11-16 20:53:00,14.98276737,0.0002264,70.0,271.9234,271.175,88.915,0.00079613,9.406e-05,0.0,0 STARLINK-5919,1 55927U 23037P   23320.87013921  .00009406  00000-0  79613-3 0  9992,2 55927  70.0000 271.9234 0002264 271.1750  88.9150 14.98276737 37096,6950.358,96.11,573.796,570.649,0.0
55927.0,STARLINK-5919,PAYLOAD,2023-11-17 06:29:48,14.98303735,0.0002281,69.9997,270.9127,281.278,78.8122,0.00056773,6.683e-05,0.0,0 STARLINK-5919,1 55927U 23037P   23321.27069937  .00006683  00000-0  56773-3 0  9991,2 55927  69.9997 270.9127 0002281 281.2780  78.8122 14.98303735 37492,6950.274,96.109,573.724,570.554,0.0
55927.0,STARLINK-5919,PAYLOAD,2023-11-17 14:30:28,14.98331137,0.000262,70.0002,270.0712,277.1088,82.9773,3.8826e-05,3.7e-06,0.0,0 STARLINK-5919,1 55927U 23037P   23321.60449417  .00000370  00000-0  38826-4 0  9990,2 55927  70.0002 270.0712 0002620 277.1088  82.9773 14.98331137 37209,6950.189,96.107,573.875,570.233,0.0
55927.0,STARLINK-5919,PAYLOAD,2023-11-17 20:55:00,14.98330179,0.000264,69.9999,269.3981,276.5768,83.509,4.9912e-05,5.03e-06,0.0,0 STARLINK-5919,1 55927U 23037P   23321.87153410  .00000503  00000-0  49912-4 0  9990,2 55927  69.9999 269.3981 0002640 276.5768  83.5090 14.98330179 37248,6950.192,96.107,573.892,570.222,0.0
55927.0,STARLINK-5919,PAYLOAD,2023-11-18 06:31:49,14.98328179,0.0002687,69.9994,268.3886,269.9104,90.1747,9.6654e-06,2.2e-07,0.0,0 STARLINK-5919,1 55927U 23037P   23322.27209646  .00000022  00000-0  96654-5 0  9990,2 55927  69.9994 268.3886 0002687 269.9104  90.1747 14.98328179 37304,6950.199,96.107,573.931,570.196,0.0
55927.0,STARLINK-5919,PAYLOAD,2023-11-18 19:20:53,14.98332981,0.0002921,69.9986,267.04,270.5574,89.525,2.1648e-05,1.65e-06,0.0,0 STARLINK-5919,1 55927U 23037P   23322.80617241  .00000165  00000-0  21648-4 0  9991,2 55927  69.9986 267.0400 0002921 270.5574  89.5250 14.98332981 37726,6950.184,96.107,574.079,570.019,0.0
55927.0,STARLINK-5919,PAYLOAD,2023-11-19 06:33:49,14.98337842,0.0002907,69.9987,265.8618,270.7962,89.2864,7.1042e-05,7.55e-06,0.0,0 STARLINK-5919,1 55927U 23037P   23323.27348674  .00000755  00000-0  71042-4 0  9992,2 55927  69.9987 265.8618 0002907 270.7962  89.2864 14.98337842 37450,6950.169,96.106,574.054,570.013,0.0
55927.0,STARLINK-5919,PAYLOAD,2023-11-19 22:35:10,14.98330112,0.0002887,69.9994,264.1802,277.8058,82.2773,4.8011e-05,4.8e-06,0.0,0 STARLINK-5919,1 55927U 23037P   23323.94109122  .00000480  00000-0  48011-4 0  9994,2 55927  69.9994 264.1802 0002887 277.8058  82.2773 14.98330112 37552,6950.193,96.107,574.064,570.051,0.0
55927.0,STARLINK-5919,PAYLOAD,2023-11-20 03:23:34,14.98330998,0.0002755,69.9994,263.6761,264.207,95.8775,5.039e-05,5.08e-06,0.0,0 STARLINK-5919,1 55927U 23037P   23324.14136964  .00000508  00000-0  50390-4 0  9995,2 55927  69.9994 263.6761 0002755 264.2070  95.8775 14.98330998 37923,6950.19,96.107,573.97,570.14,0.0
55927.0,STARLINK-5919,PAYLOAD,2023-11-20 13:00:22,14.98341546,0.0002602,69.9999,262.6648,277.1694,82.9169,-0.00014512,-1.825e-05,0.0,0 STARLINK-5919,1 55927U 23037P   23324.54192817 -.00001825  00000-0 -14512-3 0  9998,2 55927  69.9999 262.6648 0002602 277.1694  82.9169 14.98341546 37641,6950.157,96.106,573.831,570.214,0.0
55927.0,STARLINK-5919,PAYLOAD,2023-11-20 22:37:10,14.9833478,0.0002683,69.9996,261.6547,268.0099,92.0753,1.7998e-05,1.22e-06,0.0,0 STARLINK-5919,1 55927U 23037P   23324.94248691  .00000122  00000-0  17998-4 0  9993,2 55927  69.9996 261.6547 0002683 268.0099  92.0753 14.98334780 37702,6950.178,96.107,573.908,570.178,0.0
55927.0,STARLINK-5919,PAYLOAD,2023-11-21 03:25:34,14.98335299,0.0002712,69.9994,261.1498,264.831,95.254,2.0446e-05,1.51e-06,0.0,0 STARLINK-5919,1 55927U 23037P   23325.14276555  .00000151  00000-0  20446-4 0  9990,2 55927  69.9994 261.1498 0002712 264.8310  95.2540 14.98335299 38079,6950.177,96.107,573.926,570.157,0.0
55927.0,STARLINK-5919,PAYLOAD,2023-11-21 05:01:42,14.98336317,0.0002698,69.9995,260.9815,265.137,94.9481,3.2769e-05,2.98e-06,0.0,0 STARLINK-5919,1 55927U 23037P   23325.20952461  .00000298  00000-0  32769-4 0  9997,2 55927  69.9995 260.9815 0002698 265.1370  94.9481 14.98336317 37748,6950.173,96.107,573.914,570.163,0.0
55927.0,STARLINK-5919,PAYLOAD,2023-11-21 21:03:04,14.98326764,0.0002647,69.9995,259.2981,264.1201,95.9657,6.5048e-06,-1.5e-07,0.0,0 STARLINK-5919,1 55927U 23037P   23325.87713060 -.00000015  00000-0  65048-5 0  9995,2 55927  69.9995 259.2981 0002647 264.1201  95.9657 14.98326764 37841,6950.203,96.107,573.908,570.228,0.0
55927.0,STARLINK-5919,PAYLOAD,2023-11-22 03:27:36,14.98327988,0.0002486,69.9993,258.6239,258.4177,101.6703,2.0804e-05,1.55e-06,0.0,0 STARLINK-5919,1 55927U 23037P   23326.14416947  .00000155  00000-0  20804-4 0  9994,2 55927  69.9993 258.6239 0002486 258.4177 101.6703 14.98327988 38226,6950.199,96.107,573.792,570.336,0.0
